[{"OBJECT_NAME":"GEESAT-4 01","OBJECT_ID":"2025-170A","EPOCH":"2026-03-09T23:13:09.806304","MEAN_MOTION":14.83887385,"ECCENTRICITY":0.00109011,"INCLINATION":49.9869,"RA_OF_ASC_NODE":274.5191,"ARG_OF_PERICENTER":31.7658,"MEAN_ANOMALY":328.3936,"EPHEMERIS_TYPE":0,"CLASSIFICATION_TYPE":"U","NORAD_CAT_ID":65119,"ELEMENT_SET_NO":999,"REV_AT_EPOCH":3170,"BSTAR":0.00035858481,"MEAN_MOTION_DOT":2.784e-5,"MEAN_MOTION_DDOT":0},{"OBJECT_NAME":"PEGASUS DEB","OBJECT_ID":"1994-029AER","EPOCH":"2026-02-26T06:39:21.581568","MEAN_MOTION":15.03561005,"ECCENTRICITY":0.01227406,"INCLINATION":81.7323,"RA_OF_ASC_NODE":356.2383,"ARG_OF_PERICENTER":77.7128,"MEAN_ANOMALY":283.7806,"EPHEMERIS_TYPE":0,"CLASSIFICATION_TYPE":"U","NORAD_CAT_ID":39306,"ELEMENT_SET_NO":999,"REV_AT_EPOCH":9218,"BSTAR":0.0046128236,"MEAN_MOTION_DOT":0.00074995,"MEAN_MOTION_DDOT":0}]
